IRIDIUM 36              
1 24967U 97056C   24239.94538912  .00000883  00000+0  29156-3 0  9990
2 24967  86.3950 296.5886 0002078  95.8902 264.2532 14.36983515409951
IRIDIUM 39              
1 25042U 97069D   24239.69856417  .00001808  00000+0  47859-3 0  9992
2 25042  86.3964 337.3776 0017393 203.4243 156.6170 14.48233608406328
IRIDIUM 38              
1 25043U 97069E   24239.72185899  .00001238  00000+0  40773-3 0  9991
2 25043  86.4012 357.0263 0002328  44.1640 315.9743 14.37451309403643
IRIDIUM 42              
1 25077U 97077A   24239.57981616  .00001136  00000+0  38651-3 0  9990
2 25077  86.4013   2.8875 0002190  75.4220 284.7220 14.35732427398910
IRIDIUM 44              
1 25078U 97077B   24239.69991743  .00001108  00000+0  34869-3 0  9992
2 25078  86.4010 345.5635 0000309  82.9970 277.1264 14.39581320401326
IRIDIUM 45              
1 25104U 97082A   24239.78220365  .00030518  00000+0  15890-2 0  9992
2 25104  86.3738 189.0536 0149800 343.5959  16.0454 15.06577391407477
IRIDIUM 24              
1 25105U 97082B   24239.63132560  .00001360  00000+0  41385-3 0  9998
2 25105  86.3942 205.0556 0010611 342.9332  17.1509 14.41379360400774
IRIDIUM 51              
1 25262U 98018A   24239.61325332  .00027425  00000+0  11630-2 0  9990
2 25262  86.3974 198.7129 0131133 282.6013  76.0589 15.15403970402069
